METEOSAT-10 (MSG-3)     
1 38552U 12035B   22020.82123521  .00000073  00000+0  00000+0 0  9992
2 38552   1.3365  30.8939 0000416 244.5525 149.7339  1.00278788 34737
SES-5                   
1 38652U 12036A   22021.10743934  .00000045  00000+0  00000+0 0  9991
2 38652   0.0584 285.3165 0002177   8.9600 229.8150  1.00272276 34947
TIANLIAN 1-03           
1 38730U 12040A   22020.89910465  .00000135  00000+0  00000+0 0  9993
2 38730   1.6446  93.3992 0004807 294.0834  76.7942  1.00271205 34862
INTELSAT 20 (IS-20)     
1 38740U 12043A   22020.87132641 -.00000013  00000+0  00000+0 0  9993
2 38740   0.0156  86.9822 0002121  90.2730 325.1124  1.00269893 34629
HYLAS 2                 
1 38741U 12043B   22021.16802142  .00000165  00000+0  00000+0 0  9994
2 38741   0.0558 263.7113 0001796  29.2691 279.0480  1.00270462 34726
INTELSAT 21 (IS-21)     
1 38749U 12045A   22021.18784010 -.00000274  00000+0  00000+0 0  9991
2 38749   0.0171  63.1961 0002068 243.9620 183.0042  1.00269747 34517
ASTRA 2F                
1 38778U 12051A   22021.16716030  .00000161  00000+0  00000+0 0  9999
2 38778   0.0821 246.6993 0003719  17.9503 304.1984  1.00271165 34166
GSAT-10                 
1 38779U 12051B   22021.19216218 -.00000154  00000+0  00000+0 0  9999
2 38779   0.1057 273.3980 0003863 342.3976  16.9012  1.00273339 34166
INTELSAT 23 (IS-23)     
1 38867U 12057A   22020.86381023 -.00000273  00000+0  00000+0 0  9995
2 38867   0.0580 246.4060 0001862  55.6590  76.0987  1.00270541 33818
BEIDOU 16               
1 38953U 12059A   22020.95674274 -.00000165  00000+0  00000+0 0  9996
2 38953   1.6255  84.5649 0012189 277.7887 186.3985  1.00270486 33927
LUCH 5B                 
1 38977U 12061A   22020.87063313 -.00000126  00000+0  00000+0 0  9999
2 38977   6.9750  63.7114 0000557 220.0277 133.5629  1.00270885 34043
YAMAL 300K              
1 38978U 12061B   22020.55148486  .00000082  00000+0  00000+0 0  9990
2 38978   0.0182  59.3369 0000584 240.0236 202.0125  1.00272998 33508
STAR ONE C3             
1 38991U 12062A   22020.80440208 -.00000237  00000+0  00000+0 0  9994
2 38991   0.0503 261.5033 0002407  51.6231  21.5876  1.00269610 33630
EUTELSAT 21B            
1 38992U 12062B   22020.82367730  .00000141  00000+0  00000+0 0  9998
2 38992   0.0663  21.7517 0002589 278.1624 138.3422  1.00271782 33710
ECHOSTAR 16             
1 39008U 12065A   22020.48474590 -.00000270  00000+0  00000+0 0  9999
2 39008   0.0175  64.2613 0001933 238.8053 289.7641  1.00267153 33493
CHINASAT 12 (ZX 12)     
1 39017U 12067A   22021.12392361 -.00000195  00000+0  00000+0 0  9994
2 39017   0.0249 104.3446 0002865 194.1736 314.0551  1.00271629 33587
EUTELSAT 70B            
1 39020U 12069A   22020.92202387 -.00000032  00000+0  00000+0 0  9995
2 39020   0.0669  35.7268 0005618 211.3687 275.5800  1.00272500 33387
YAMAL 402               
1 39022U 12070A   22019.76855141  .00000097  00000+0  00000+0 0  9991
2 39022   0.0279  97.9641 0003105 204.7957 147.9387  1.00272776 33462
SKYNET 5D               
1 39034U 12075A   22020.92757825  .00000111  00000+0  00000+0 0  9996
2 39034   0.0695  13.2463 0004191 287.5419 206.1281  1.00271548 33049
MEXSAT 3                
1 39035U 12075B   22021.15351309 -.00000014  00000+0  00000+0 0  9993
2 39035   0.0155  77.1788 0002139 222.7891 120.9699  1.00271927 33356
TDRS 11                 
1 39070U 13004A   22020.85638418  .00000095  00000+0  00000+0 0  9998
2 39070   3.0742 342.1499 0003739  48.5996 223.4206  1.00276869 30564
AMAZONAS 3              
1 39078U 13006A   22021.11557531 -.00000271  00000+0  00000+0 0  9991
2 39078   0.0142 187.5570 0003693  89.0542 184.4729  1.00268457 32843
AZERSPACE 1             
1 39079U 13006B   22021.11563787  .00000144  00000+0  00000+0 0  9990
2 39079   0.0221  67.9200 0002130 267.6102 232.5428  1.00270044 32806
SBIRS GEO-2 (USA 241)   
1 39120U 13011A   22021.16716030  .00000133  00000+0  00000+0 0  9997
2 39120   1.8851  13.7978 0001902 283.4334 264.1362  1.00272385 32461
EUTELSAT 117 WEST A     
1 39122U 13012A   22020.72433568 -.00000001  00000+0  00000+0 0  9998
2 39122   0.0279 320.5907 0003020 343.6575 319.7635  1.00271643 32318
ANIK G1                 
1 39127U 13014A   22020.66853128 -.00000062  00000+0  00000+0 0  9993
2 39127   0.0125 223.0226 0002555  52.3345 338.0190  1.00270916 32126
CHINASAT 11 (ZX 11)     
1 39157U 13020A   22020.43868682 -.00000279  00000+0  00000+0 0  9999
2 39157   0.0370 248.6756 0001728  57.7911  69.1331  1.00269717 32026
EUTELSAT 7B             
1 39163U 13022A   22020.86507709  .00000059  00000+0  00000+0 0  9990
2 39163   0.0751 339.7694 0005477 354.7860 104.0682  1.00270529 31858
WGS F5 (USA 243)        
1 39168U 13024A   22021.32787794 -.00000273  00000+0  00000+0 0  9992
2 39168   0.0196  89.6112 0000552 273.9040 182.6918  1.00269859 31705
SES-6                   
1 39172U 13026A   22021.09836865 -.00000250  00000+0  00000+0 0  9992
2 39172   0.0466 287.5082 0002536   7.3482 180.4800  1.00271837 31590
IRNSS-1A                
1 39199U 13034A   22020.75852524  .00000082  00000+0  00000+0 0  9994
2 39199  32.1008  87.6429 0020923 187.3399 173.2209  1.00277477 31529
MUOS-2                  
1 39206U 13036A   22020.85594808  .00000076  00000+0  00000+0 0  9997
2 39206   2.6035  17.9811 0051852 184.1380  49.2152  1.00273936 31065
ALPHASAT                
1 39215U 13038A   22021.16716030  .00000146  00000+0  00000+0 0  9995
2 39215   2.6559  14.9931 0002147 286.2882 264.2612  1.00271560 31140
INSAT-3D                
1 39216U 13038B   22021.19216218 -.00000146  00000+0  00000+0 0  9993
2 39216   0.0605 265.3513 0000867  43.0494 323.4835  1.00271724 31178
WGS F6 (USA 244)        
1 39222U 13041A   22021.24037867  .00000100  00000+0  00000+0 0  9990
2 39222   0.0172  70.8570 0000412 229.6122 131.4224  1.00271582 30947
ES'HAIL 1               
1 39233U 13044A   22021.16716030  .00000154  00000+0  00000+0 0  9991
2 39233   0.0489 359.3803 0002143 298.0789 268.7036  1.00269649 30773
GSAT-7                  
1 39234U 13044B   22020.92202387 -.00000066  00000+0  00000+0 0  9993
2 39234   0.0323  97.5484 0009525 178.7729 249.8623  1.00272072 29208
AMOS-4                  
1 39237U 13045A   22021.11938825  .00000019  00000+0  00000+0 0  9999
2 39237   0.0234  79.4448 0002704 225.9292 283.0369  1.00271857 30763
AEHF-3 (USA 246)        
1 39256U 13050A   22020.71666049  .00000145  00000+0  00000+0 0  9997
2 39256   1.3613  68.2281 0057016 188.0024 326.6995  1.00272524 29543
ASTRA 2E                
1 39285U 13056A   22021.16716030  .00000161  00000+0  00000+0 0  9999
2 39285   0.0569 358.1991 0002597 311.4241 259.5122  1.00270390 30465
FM-6                    
1 39360U 13058A   22020.72442292 -.00000006  00000+0  00000+0 0  9991
2 39360   0.0040 330.9299 0000425 226.1086  67.6356  1.00273442 29937
RADUGA-1M 3             
1 39375U 13062A   22020.88243774  .00000166  00000+0  00000+0 0  9999
2 39375   1.8668  91.5358 0003109  69.1261 312.1946  1.00273924 30004
SES-8                   
1 39460U 13071A   22020.91646692 -.00000259  00000+0  00000+0 0  9998
2 39460   0.0546 252.3423 0001079  71.0813 221.7592  1.00272597 28301
INMARSAT 5-F1           
1 39476U 13073A   22020.89216020  .00000039  00000+0  00000+0 0  9997
2 39476   0.0179  60.2029 0000313 294.1278 149.6799  1.00271303 29808
TKSAT-1 (TUPAC KATARI)  
1 39481U 13075A   22021.17033399 -.00000183  00000+0  00000+0 0  9994
2 39481   0.0403 127.5772 0002786 180.5866 146.4579  1.00270836 29725
EXPRESS-AM5             
1 39487U 13077A   22020.70635140 -.00000269  00000+0  00000+0 0  9997
2 39487   0.0446 203.7713 0001037 217.3604  93.2091  1.00269765 30221
GSAT-14                 
1 39498U 14001A   22021.19771656 -.00000065  00000+0  00000+0 0  9998
2 39498   0.0132  56.3913 0005609 216.6696 352.6663  1.00269552 29455
THAICOM 6               
1 39500U 14002A   22020.92202387 -.00000110  00000+0  00000+0 0  9994
2 39500   0.0792 116.0564 0000295  76.6163 338.0284  1.00270716 29334
TDRS 12                 
1 39504U 14004A   22021.09828142 -.00000256  00000+0  00000+0 0  9993
2 39504   3.9931 344.8563 0001282  22.4649 107.4485  1.00265487 29329
ABS-2                   
1 39508U 14006A   22020.92202387 -.00000075  00000+0  00000+0 0  9996
2 39508   0.0183  39.7128 0003575 282.4571 204.9397  1.00271594 29169
ATHENA-FIDUS            
1 39509U 14006B   22021.16160297  .00000165  00000+0  00000+0 0  9996
2 39509   0.0151 108.6724 0001115 199.5774 268.2075  1.00272513 29375
TURKSAT 4A              
1 39522U 14007A   22021.11485292  .00000157  00000+0  00000+0 0  9993
2 39522   0.0845 269.3655 0004890  17.4589 276.9968  1.00274891 29089
EXPRESS-AT1             
1 39612U 14010A   22020.89216020  .00000090  00000+0  00000+0 0  9998
2 39612   0.0517 240.1739 0000083  38.8002 218.4141  1.00271165 28929
EXPRESS-AT2             
1 39613U 14010B   22020.84722625 -.00000271  00000+0  00000+0 0  9999
2 39613   0.0175 218.3421 0000596 200.6153 146.0898  1.00268566 28397
AMAZONAS 4A             
1 39616U 14011A   22020.80466375 -.00000241  00000+0  00000+0 0  9993
2 39616   0.1555  85.8227 0003679 222.1190  27.9120  1.00270621 28568
ASTRA 5B                
1 39617U 14011B   22021.16802142  .00000166  00000+0  00000+0 0  9995
2 39617   0.0539 312.5192 0002951 323.8496 296.1540  1.00273783 28749
IRNSS-1B                
1 39635U 14017A   22020.94798719  .00000129  00000+0  00000+0 0  9999
2 39635  29.0418 267.5634 0018226 179.3833  69.6712  1.00272818 28659
LUCH 5V                 
1 39727U 14023A   22020.83824277 -.00000258  00000+0  00000+0 0  9999
2 39727   1.1574  71.9001 0001985 268.6648 176.0597  1.00275743 28238
KAZSAT-3                
1 39728U 14023B   22021.16205228  .00000072  00000+0  00000+0 0  9999
2 39728   0.0134 119.7813 0000804 278.8036 198.7688  1.00271137 28318
